{
"type": "FeatureCollection",
"name": "Macrozona Industrial",
"crs": { "type": "name", "properties": { "name": "urn:ogc:def:crs:OGC:1.3:CRS84" } },
"features": [
{ "type": "Feature", "properties": { "Name": "Macrozona Industrial (MI)", "id": 1, "perímetro_ellip_m": 71191.1, "área_ellip_m²": 96351059.5, "perímetro_ellip_Km": 71.2, "área_ellip_Km²": 96.4 }, "geometry": { "type": "MultiPolygon", "coordinates": [ [ [ [ -38.30255, -12.62329, 0.0 ], [ -38.30209, -12.62333, 0.0 ], [ -38.3018, -12.62335, 0.0 ], [ -38.30141, -12.6233, 0.0 ], [ -38.30116, -12.62333, 0.0 ], [ -38.30116, -12.62333, 0.0 ], [ -38.3014, -12.6233, 0.0 ], [ -38.30179, -12.62335, 0.0 ], [ -38.30208, -12.62333, 0.0 ], [ -38.30254, -12.62329, 0.0 ], [ -38.30293, -12.62334, 0.0 ], [ -38.30325, -12.62346, 0.0 ], [ -38.30384, -12.6237, 0.0 ], [ -38.30452, -12.62395, 0.0 ], [ -38.30563, -12.6243, 0.0 ], [ -38.30576, -12.62434, 0.0 ], [ -38.3066, -12.62457, 0.0 ], [ -38.30686, -12.62464, 0.0 ], [ -38.30798, -12.62511, 0.0 ], [ -38.3084, -12.62528, 0.0 ], [ -38.30872, -12.62532, 0.0 ], [ -38.309, -12.62532, 0.0 ], [ -38.30902, -12.62532, 0.0 ], [ -38.30902, -12.62532, 0.0 ], [ -38.30873, -12.62532, 0.0 ], [ -38.30841, -12.62528, 0.0 ], [ -38.30799, -12.62511, 0.0 ], [ -38.30687, -12.62464, 0.0 ], [ -38.30577, -12.62433, 0.0 ], [ -38.30453, -12.62395, 0.0 ], [ -38.30385, -12.6237, 0.0 ], [ -38.30326, -12.62346, 0.0 ], [ -38.30294, -12.62334, 0.0 ], [ -38.30255, -12.62329, 0.0 ] ] ], [ [ [ -38.30208, -12.62333, 0.0 ], [ -38.30179, -12.62335, 0.0 ], [ -38.3014, -12.6233, 0.0 ], [ -38.30116, -12.62333, 0.0 ], [ -38.30097, -12.62347, 0.0 ], [ -38.30075, -12.62381, 0.0 ], [ -38.30052, -12.62392, 0.0 ], [ -38.30052, -12.62392, 0.0 ], [ -38.30051, -12.62392, 0.0 ], [ -38.30005, -12.62397, 0.0 ], [ -38.2994, -12.62397, 0.0 ], [ -38.29912, -12.62405, 0.0 ], [ -38.29895, -12.62425, 0.0 ], [ -38.29886, -12.6244, 0.0 ], [ -38.29859, -12.62457, 0.0 ], [ -38.29836, -12.62479, 0.0 ], [ -38.29816, -12.62511, 0.0 ], [ -38.29814, -12.62514, 0.0 ], [ -38.29796, -12.62563, 0.0 ], [ -38.29767, -12.62584, 0.0 ], [ -38.29749, -12.62607, 0.0 ], [ -38.29744, -12.62666, 0.0 ], [ -38.2973, -12.62677, 0.0 ], [ -38.29617, -12.62789, 0.0 ], [ -38.29533, -12.6289, 0.0 ], [ -38.29383, -12.63061, 0.0 ], [ -38.29332, -12.63119, 0.0 ], [ -38.29305, -12.63145, 0.0 ], [ -38.29264, -12.63168, 0.0 ], [ -38.29263, -12.63168, 0.0 ], [ -38.29263, -12.63168, 0.0 ], [ -38.29198, -12.63189, 0.0 ], [ -38.291, -12.63217, 0.0 ], [ -38.29033, -12.63257, 0.0 ], [ -38.2896, -12.6331, 0.0 ], [ -38.28893, -12.63367, 0.0 ], [ -38.28831, -12.63418, 0.0 ], [ -38.28774, -12.6347, 0.0 ], [ -38.28723, -12.63493, 0.0 ], [ -38.28702, -12.63506, 0.0 ], [ -38.28702, -12.63506, 0.0 ], [ -38.28701, -12.63506, 0.0 ], [ -38.28678, -12.63508, 0.0 ], [ -38.28626, -12.63489, 0.0 ], [ -38.28538, -12.63435, 0.0 ], [ -38.28478, -12.63388, 0.0 ], [ -38.28317, -12.6312, 0.0 ], [ -38.28286, -12.63061, 0.0 ], [ -38.28256, -12.63024, 0.0 ], [ -38.28216, -12.6301, 0.0 ], [ -38.28162, -12.63006, 0.0 ], [ -38.28078, -12.63083, 0.0 ], [ -38.28136, -12.63245, 0.0 ], [ -38.2819, -12.63365, 0.0 ], [ -38.28166, -12.63421, 0.0 ], [ -38.28073, -12.63592, 0.0 ], [ -38.28068, -12.6366, 0.0 ], [ -38.28055, -12.63696, 0.0 ], [ -38.28041, -12.63739, 0.0 ], [ -38.2802, -12.63762, 0.0 ], [ -38.27979, -12.63775, 0.0 ], [ -38.27945, -12.63753, 0.0 ], [ -38.27939, -12.63742, 0.0 ], [ -38.27641, -12.63765, 0.0 ], [ -38.27594, -12.63815, 0.0 ], [ -38.27535, -12.63852, 0.0 ], [ -38.27427, -12.63882, 0.0 ], [ -38.27365, -12.63896, 0.0 ], [ -38.27298, -12.63939, 0.0 ], [ -38.2726, -12.63994, 0.0 ], [ -38.27232, -12.6403, 0.0 ], [ -38.27147, -12.64075, 0.0 ], [ -38.27081, -12.64097, 0.0 ], [ -38.26994, -12.64086, 0.0 ], [ -38.26843, -12.64137, 0.0 ], [ -38.25801, -12.64585, 0.0 ], [ -38.24976, -12.63691, 0.0 ], [ -38.2494, -12.6368, 0.0 ], [ -38.24878, -12.63692, 0.0 ], [ -38.24831, -12.63708, 0.0 ], [ -38.24768, -12.63735, 0.0 ], [ -38.24768, -12.63735, 0.0 ], [ -38.24767, -12.63735, 0.0 ], [ -38.24735, -12.63744, 0.0 ], [ -38.24721, -12.63748, 0.0 ], [ -38.24719, -12.63749, 0.0 ], [ -38.24694, -12.63755, 0.0 ], [ -38.24638, -12.63769, 0.0 ], [ -38.24564, -12.63798, 0.0 ], [ -38.24564, -12.63798, 0.0 ], [ -38.24517, -12.63817, 0.0 ], [ -38.24442, -12.6384, 0.0 ], [ -38.2437, -12.63849, 0.0 ], [ -38.24315, -12.63858, 0.0 ], [ -38.24278, -12.63881, 0.0 ], [ -38.24238, -12.63927, 0.0 ], [ -38.24172, -12.64038, 0.0 ], [ -38.2407, -12.64092, 0.0 ], [ -38.23933, -12.64143, 0.0 ], [ -38.23771, -12.64169, 0.0 ], [ -38.23627, -12.64189, 0.0 ], [ -38.23521, -12.64219, 0.0 ], [ -38.23361, -12.64232, 0.0 ], [ -38.2327, -12.64228, 0.0 ], [ -38.23188, -12.6421, 0.0 ], [ -38.23088, -12.64171, 0.0 ], [ -38.2295, -12.64114, 0.0 ], [ -38.22848, -12.64089, 0.0 ], [ -38.22823, -12.64083, 0.0 ], [ -38.22759, -12.64068, 0.0 ], [ -38.22621, -12.64013, 0.0 ], [ -38.22621, -12.64013, 0.0 ], [ -38.22759, -12.64068, 0.0 ], [ -38.22823, -12.64084, 0.0 ], [ -38.22823, -12.64084, 0.0 ], [ -38.22759, -12.64068, 0.0 ], [ -38.22621, -12.64013, 0.0 ], [ -38.22598, -12.64092, 0.0 ], [ -38.22542, -12.64164, 0.0 ], [ -38.22497, -12.6422, 0.0 ], [ -38.2248, -12.6426, 0.0 ], [ -38.22471, -12.64325, 0.0 ], [ -38.22476, -12.64408, 0.0 ], [ -38.22487, -12.64473, 0.0 ], [ -38.22505, -12.6458, 0.0 ], [ -38.22519, -12.64635, 0.0 ], [ -38.22515, -12.64661, 0.0 ], [ -38.22514, -12.6466, 0.0 ], [ -38.22514, -12.64661, 0.0 ], [ -38.22514, -12.64661, 0.0 ], [ -38.2221, -12.6446, 0.0 ], [ -38.21921, -12.64269, 0.0 ], [ -38.21647, -12.63996, 0.0 ], [ -38.21662, -12.65431, 0.0 ], [ -38.21681, -12.65458, 0.0 ], [ -38.21726, -12.65473, 0.0 ], [ -38.21729, -12.67214, 0.0 ], [ -38.21589, -12.67214, 0.0 ], [ -38.21587, -12.67213, 0.0 ], [ -38.21556, -12.67214, 0.0 ], [ -38.21401, -12.67213, 0.0 ], [ -38.21372, -12.67213, 0.0 ], [ -38.21026, -12.67212, 0.0 ], [ -38.20979, -12.67212, 0.0 ], [ -38.20803, -12.67212, 0.0 ], [ -38.20806, -12.68152, 0.0 ], [ -38.20782, -12.68152, 0.0 ], [ -38.20778, -12.68652, 0.0 ], [ -38.20775, -12.69047, 0.0 ], [ -38.20832, -12.69048, 0.0 ], [ -38.20863, -12.69048, 0.0 ], [ -38.2259, -12.69064, 0.0 ], [ -38.23223, -12.69062, 0.0 ], [ -38.23376, -12.69061, 0.0 ], [ -38.23379, -12.69132, 0.0 ], [ -38.23604, -12.69142, 0.0 ], [ -38.23814, -12.69211, 0.0 ], [ -38.24043, -12.69481, 0.0 ], [ -38.24196, -12.69485, 0.0 ], [ -38.242, -12.69751, 0.0 ], [ -38.25085, -12.69757, 0.0 ], [ -38.25243, -12.69758, 0.0 ], [ -38.26475, -12.69766, 0.0 ], [ -38.26669, -12.69768, 0.0 ], [ -38.26688, -12.69768, 0.0 ], [ -38.26739, -12.69768, 0.0 ], [ -38.26751, -12.69678, 0.0 ], [ -38.27132, -12.69484, 0.0 ], [ -38.27745, -12.69083, 0.0 ], [ -38.27824, -12.69032, 0.0 ], [ -38.28036, -12.68893, 0.0 ], [ -38.28076, -12.68867, 0.0 ], [ -38.2838, -12.68668, 0.0 ], [ -38.28423, -12.6877, 0.0 ], [ -38.2844, -12.68806, 0.0 ], [ -38.28473, -12.68856, 0.0 ], [ -38.28498, -12.68886, 0.0 ], [ -38.28668, -12.69012, 0.0 ], [ -38.2871, -12.69043, 0.0 ], [ -38.28939, -12.68978, 0.0 ], [ -38.30215, -12.68996, 0.0 ], [ -38.30458, -12.6888, 0.0 ], [ -38.30525, -12.6898, 0.0 ], [ -38.30536, -12.69, 0.0 ], [ -38.30568, -12.68998, 0.0 ], [ -38.30623, -12.68998, 0.0 ], [ -38.30785, -12.68998, 0.0 ], [ -38.31011, -12.68978, 0.0 ], [ -38.3125, -12.68945, 0.0 ], [ -38.31367, -12.68916, 0.0 ], [ -38.31446, -12.68919, 0.0 ], [ -38.3152, -12.68939, 0.0 ], [ -38.31597, -12.6895, 0.0 ], [ -38.31765, -12.68847, 0.0 ], [ -38.3186, -12.68839, 0.0 ], [ -38.32149, -12.68795, 0.0 ], [ -38.32217, -12.68785, 0.0 ], [ -38.32269, -12.6874, 0.0 ], [ -38.32425, -12.68606, 0.0 ], [ -38.32457, -12.68556, 0.0 ], [ -38.32494, -12.68533, 0.0 ], [ -38.32565, -12.68533, 0.0 ], [ -38.32574, -12.68533, 0.0 ], [ -38.32687, -12.6847, 0.0 ], [ -38.3281, -12.68403, 0.0 ], [ -38.32837, -12.68388, 0.0 ], [ -38.32974, -12.68356, 0.0 ], [ -38.32997, -12.68349, 0.0 ], [ -38.33161, -12.68333, 0.0 ], [ -38.33281, -12.68369, 0.0 ], [ -38.33294, -12.6837, 0.0 ], [ -38.33316, -12.68374, 0.0 ], [ -38.33364, -12.68382, 0.0 ], [ -38.33402, -12.68441, 0.0 ], [ -38.3359, -12.68485, 0.0 ], [ -38.33609, -12.68438, 0.0 ], [ -38.33636, -12.68441, 0.0 ], [ -38.33655, -12.68447, 0.0 ], [ -38.33675, -12.68449, 0.0 ], [ -38.33687, -12.68451, 0.0 ], [ -38.33701, -12.6845, 0.0 ], [ -38.33729, -12.68448, 0.0 ], [ -38.33769, -12.68445, 0.0 ], [ -38.33776, -12.68445, 0.0 ], [ -38.33814, -12.68432, 0.0 ], [ -38.33829, -12.68409, 0.0 ], [ -38.33853, -12.68388, 0.0 ], [ -38.33862, -12.68378, 0.0 ], [ -38.33868, -12.6837, 0.0 ], [ -38.33903, -12.68349, 0.0 ], [ -38.33929, -12.68338, 0.0 ], [ -38.3395, -12.68333, 0.0 ], [ -38.33971, -12.68326, 0.0 ], [ -38.33997, -12.68317, 0.0 ], [ -38.34018, -12.68319, 0.0 ], [ -38.34037, -12.68322, 0.0 ], [ -38.34054, -12.68331, 0.0 ], [ -38.34069, -12.68337, 0.0 ], [ -38.3409, -12.68346, 0.0 ], [ -38.34102, -12.68353, 0.0 ], [ -38.34102, -12.68353, 0.0 ], [ -38.34123, -12.68358, 0.0 ], [ -38.34154, -12.68352, 0.0 ], [ -38.34157, -12.6835, 0.0 ], [ -38.34168, -12.68345, 0.0 ], [ -38.34181, -12.68349, 0.0 ], [ -38.34193, -12.68355, 0.0 ], [ -38.34222, -12.68367, 0.0 ], [ -38.34236, -12.68367, 0.0 ], [ -38.34252, -12.68369, 0.0 ], [ -38.34252, -12.68454, 0.0 ], [ -38.34259, -12.68487, 0.0 ], [ -38.3425, -12.68559, 0.0 ], [ -38.34242, -12.68591, 0.0 ], [ -38.34237, -12.68605, 0.0 ], [ -38.34183, -12.68639, 0.0 ], [ -38.34184, -12.68643, 0.0 ], [ -38.34186, -12.68647, 0.0 ], [ -38.34189, -12.6865, 0.0 ], [ -38.34194, -12.68655, 0.0 ], [ -38.34201, -12.68661, 0.0 ], [ -38.34206, -12.68667, 0.0 ], [ -38.34208, -12.68671, 0.0 ], [ -38.3421, -12.68674, 0.0 ], [ -38.34211, -12.68678, 0.0 ], [ -38.34213, -12.68681, 0.0 ], [ -38.34215, -12.68683, 0.0 ], [ -38.34219, -12.68685, 0.0 ], [ -38.34228, -12.68689, 0.0 ], [ -38.34231, -12.68691, 0.0 ], [ -38.34232, -12.68693, 0.0 ], [ -38.34231, -12.68695, 0.0 ], [ -38.34229, -12.68699, 0.0 ], [ -38.34217, -12.68716, 0.0 ], [ -38.34214, -12.68724, 0.0 ], [ -38.34212, -12.68731, 0.0 ], [ -38.34213, -12.6874, 0.0 ], [ -38.34214, -12.68759, 0.0 ], [ -38.34213, -12.68768, 0.0 ], [ -38.34208, -12.68797, 0.0 ], [ -38.34207, -12.68807, 0.0 ], [ -38.34213, -12.68815, 0.0 ], [ -38.34263, -12.68805, 0.0 ], [ -38.34277, -12.68803, 0.0 ], [ -38.3432, -12.68808, 0.0 ], [ -38.34322, -12.68756, 0.0 ], [ -38.3441, -12.68757, 0.0 ], [ -38.34469, -12.6875, 0.0 ], [ -38.34476, -12.68767, 0.0 ], [ -38.3456, -12.68766, 0.0 ], [ -38.34574, -12.68787, 0.0 ], [ -38.34607, -12.6878, 0.0 ], [ -38.35008, -12.68689, 0.0 ], [ -38.35262, -12.6841, 0.0 ], [ -38.35454, -12.68201, 0.0 ], [ -38.35472, -12.68184, 0.0 ], [ -38.35492, -12.68165, 0.0 ], [ -38.35543, -12.68225, 0.0 ], [ -38.35546, -12.68247, 0.0 ], [ -38.35546, -12.68248, 0.0 ], [ -38.35545, -12.68273, 0.0 ], [ -38.3554, -12.68283, 0.0 ], [ -38.35564, -12.68306, 0.0 ], [ -38.35594, -12.68274, 0.0 ], [ -38.35719, -12.68143, 0.0 ], [ -38.35742, -12.6816, 0.0 ], [ -38.35743, -12.68159, 0.0 ], [ -38.35808, -12.68088, 0.0 ], [ -38.35851, -12.68038, 0.0 ], [ -38.35886, -12.68003, 0.0 ], [ -38.35897, -12.67993, 0.0 ], [ -38.35915, -12.67981, 0.0 ], [ -38.3593, -12.67971, 0.0 ], [ -38.35931, -12.67971, 0.0 ], [ -38.35947, -12.67965, 0.0 ], [ -38.36028, -12.67936, 0.0 ], [ -38.36042, -12.67931, 0.0 ], [ -38.3606, -12.67924, 0.0 ], [ -38.36075, -12.67917, 0.0 ], [ -38.3609, -12.67907, 0.0 ], [ -38.36091, -12.67906, 0.0 ], [ -38.36102, -12.67896, 0.0 ], [ -38.36114, -12.67879, 0.0 ], [ -38.36125, -12.6786, 0.0 ], [ -38.36134, -12.6783, 0.0 ], [ -38.36144, -12.67786, 0.0 ], [ -38.36154, -12.67737, 0.0 ], [ -38.36166, -12.67704, 0.0 ], [ -38.36182, -12.67674, 0.0 ], [ -38.36203, -12.67646, 0.0 ], [ -38.36274, -12.67562, 0.0 ], [ -38.36294, -12.67541, 0.0 ], [ -38.36316, -12.67523, 0.0 ], [ -38.36324, -12.67517, 0.0 ], [ -38.36345, -12.67505, 0.0 ], [ -38.36348, -12.67504, 0.0 ], [ -38.36362, -12.67497, 0.0 ], [ -38.36403, -12.67481, 0.0 ], [ -38.36454, -12.67467, 0.0 ], [ -38.36456, -12.67466, 0.0 ], [ -38.36782, -12.67377, 0.0 ], [ -38.36796, -12.67373, 0.0 ], [ -38.36888, -12.67348, 0.0 ], [ -38.37051, -12.67303, 0.0 ], [ -38.37129, -12.67281, 0.0 ], [ -38.3716, -12.67272, 0.0 ], [ -38.37172, -12.67264, 0.0 ], [ -38.37183, -12.67255, 0.0 ], [ -38.37188, -12.67242, 0.0 ], [ -38.3719, -12.67229, 0.0 ], [ -38.37164, -12.67162, 0.0 ], [ -38.3716, -12.67157, 0.0 ], [ -38.37134, -12.67127, 0.0 ], [ -38.37119, -12.67112, 0.0 ], [ -38.37118, -12.6711, 0.0 ], [ -38.36991, -12.66968, 0.0 ], [ -38.36757, -12.66704, 0.0 ], [ -38.36486, -12.66402, 0.0 ], [ -38.3635, -12.66251, 0.0 ], [ -38.36332, -12.66231, 0.0 ], [ -38.36279, -12.66172, 0.0 ], [ -38.36167, -12.66046, 0.0 ], [ -38.36055, -12.65922, 0.0 ], [ -38.3599, -12.65845, 0.0 ], [ -38.35941, -12.65786, 0.0 ], [ -38.35843, -12.65594, 0.0 ], [ -38.35647, -12.65189, 0.0 ], [ -38.35378, -12.64636, 0.0 ], [ -38.34991, -12.63873, 0.0 ], [ -38.34778, -12.64024, 0.0 ], [ -38.34614, -12.64132, 0.0 ], [ -38.34259, -12.64361, 0.0 ], [ -38.34088, -12.6446, 0.0 ], [ -38.34056, -12.64476, 0.0 ], [ -38.34056, -12.64476, 0.0 ], [ -38.34055, -12.64477, 0.0 ], [ -38.33985, -12.64474, 0.0 ], [ -38.33958, -12.64456, 0.0 ], [ -38.33942, -12.644, 0.0 ], [ -38.33942, -12.644, 0.0 ], [ -38.33958, -12.64456, 0.0 ], [ -38.33985, -12.64474, 0.0 ], [ -38.34055, -12.64477, 0.0 ], [ -38.34056, -12.64476, 0.0 ], [ -38.33985, -12.64474, 0.0 ], [ -38.33959, -12.64456, 0.0 ], [ -38.33943, -12.644, 0.0 ], [ -38.33973, -12.64001, 0.0 ], [ -38.34, -12.63701, 0.0 ], [ -38.34007, -12.63604, 0.0 ], [ -38.3401, -12.63484, 0.0 ], [ -38.3401, -12.63396, 0.0 ], [ -38.34, -12.63324, 0.0 ], [ -38.33977, -12.63239, 0.0 ], [ -38.3394, -12.6317, 0.0 ], [ -38.33908, -12.63119, 0.0 ], [ -38.33873, -12.6308, 0.0 ], [ -38.33799, -12.63027, 0.0 ], [ -38.33737, -12.62984, 0.0 ], [ -38.33648, -12.62945, 0.0 ], [ -38.33477, -12.62885, 0.0 ], [ -38.32967, -12.62699, 0.0 ], [ -38.32552, -12.62569, 0.0 ], [ -38.32425, -12.62521, 0.0 ], [ -38.32224, -12.62472, 0.0 ], [ -38.32052, -12.62433, 0.0 ], [ -38.32051, -12.62433, 0.0 ], [ -38.32052, -12.62433, 0.0 ], [ -38.32098, -12.62444, 0.0 ], [ -38.32135, -12.62452, 0.0 ], [ -38.3217, -12.6246, 0.0 ], [ -38.32201, -12.62467, 0.0 ], [ -38.32221, -12.62471, 0.0 ], [ -38.32226, -12.62472, 0.0 ], [ -38.32242, -12.62476, 0.0 ], [ -38.32352, -12.62504, 0.0 ], [ -38.32369, -12.62508, 0.0 ], [ -38.32386, -12.62512, 0.0 ], [ -38.32424, -12.62522, 0.0 ], [ -38.3251, -12.62554, 0.0 ], [ -38.32552, -12.62569, 0.0 ], [ -38.32564, -12.62573, 0.0 ], [ -38.32967, -12.627, 0.0 ], [ -38.33348, -12.62838, 0.0 ], [ -38.33384, -12.62852, 0.0 ], [ -38.33476, -12.62885, 0.0 ], [ -38.33647, -12.62945, 0.0 ], [ -38.33737, -12.62984, 0.0 ], [ -38.33799, -12.63027, 0.0 ], [ -38.33873, -12.6308, 0.0 ], [ -38.33907, -12.63119, 0.0 ], [ -38.3394, -12.6317, 0.0 ], [ -38.33977, -12.63239, 0.0 ], [ -38.34, -12.63325, 0.0 ], [ -38.33977, -12.63239, 0.0 ], [ -38.3394, -12.6317, 0.0 ], [ -38.33907, -12.63119, 0.0 ], [ -38.33873, -12.6308, 0.0 ], [ -38.33799, -12.63027, 0.0 ], [ -38.33737, -12.62984, 0.0 ], [ -38.33647, -12.62945, 0.0 ], [ -38.33476, -12.62885, 0.0 ], [ -38.33384, -12.62852, 0.0 ], [ -38.33348, -12.62838, 0.0 ], [ -38.32967, -12.627, 0.0 ], [ -38.32564, -12.62573, 0.0 ], [ -38.32552, -12.62569, 0.0 ], [ -38.3251, -12.62554, 0.0 ], [ -38.32424, -12.62522, 0.0 ], [ -38.32386, -12.62512, 0.0 ], [ -38.32369, -12.62508, 0.0 ], [ -38.32352, -12.62504, 0.0 ], [ -38.32242, -12.62476, 0.0 ], [ -38.32226, -12.62472, 0.0 ], [ -38.32221, -12.62471, 0.0 ], [ -38.32201, -12.62467, 0.0 ], [ -38.3217, -12.6246, 0.0 ], [ -38.32135, -12.62452, 0.0 ], [ -38.32098, -12.62444, 0.0 ], [ -38.32052, -12.62433, 0.0 ], [ -38.32051, -12.62433, 0.0 ], [ -38.31925, -12.62453, 0.0 ], [ -38.31828, -12.62469, 0.0 ], [ -38.317, -12.62489, 0.0 ], [ -38.31542, -12.62515, 0.0 ], [ -38.31126, -12.62422, 0.0 ], [ -38.31037, -12.62433, 0.0 ], [ -38.3102, -12.62459, 0.0 ], [ -38.30965, -12.62498, 0.0 ], [ -38.30933, -12.62512, 0.0 ], [ -38.30902, -12.62532, 0.0 ], [ -38.30902, -12.62532, 0.0 ], [ -38.30902, -12.62532, 0.0 ], [ -38.309, -12.62532, 0.0 ], [ -38.30872, -12.62532, 0.0 ], [ -38.3084, -12.62528, 0.0 ], [ -38.30798, -12.62511, 0.0 ], [ -38.30686, -12.62464, 0.0 ], [ -38.3066, -12.62457, 0.0 ], [ -38.30576, -12.62434, 0.0 ], [ -38.30563, -12.6243, 0.0 ], [ -38.30452, -12.62395, 0.0 ], [ -38.30384, -12.6237, 0.0 ], [ -38.30325, -12.62346, 0.0 ], [ -38.30293, -12.62334, 0.0 ], [ -38.30254, -12.62329, 0.0 ], [ -38.30208, -12.62333, 0.0 ] ] ], [ [ [ -38.30052, -12.62392, 0.0 ], [ -38.30006, -12.62397, 0.0 ], [ -38.2994, -12.62397, 0.0 ], [ -38.29912, -12.62405, 0.0 ], [ -38.29912, -12.62405, 0.0 ], [ -38.2994, -12.62397, 0.0 ], [ -38.30005, -12.62397, 0.0 ], [ -38.30051, -12.62392, 0.0 ], [ -38.30052, -12.62392, 0.0 ] ] ], [ [ [ -38.28626, -12.63489, 0.0 ], [ -38.28678, -12.63508, 0.0 ], [ -38.28701, -12.63506, 0.0 ], [ -38.28702, -12.63506, 0.0 ], [ -38.28679, -12.63507, 0.0 ], [ -38.28627, -12.63489, 0.0 ], [ -38.28538, -12.63435, 0.0 ], [ -38.28479, -12.63388, 0.0 ], [ -38.28318, -12.6312, 0.0 ], [ -38.28287, -12.6306, 0.0 ], [ -38.28256, -12.63024, 0.0 ], [ -38.28216, -12.6301, 0.0 ], [ -38.28162, -12.63006, 0.0 ], [ -38.28162, -12.63006, 0.0 ], [ -38.28216, -12.6301, 0.0 ], [ -38.28256, -12.63024, 0.0 ], [ -38.28286, -12.63061, 0.0 ], [ -38.28317, -12.6312, 0.0 ], [ -38.28478, -12.63388, 0.0 ], [ -38.28538, -12.63435, 0.0 ], [ -38.28626, -12.63489, 0.0 ] ] ], [ [ [ -38.291, -12.63217, 0.0 ], [ -38.291, -12.63217, 0.0 ], [ -38.29198, -12.63189, 0.0 ], [ -38.29263, -12.63168, 0.0 ], [ -38.29263, -12.63168, 0.0 ], [ -38.29198, -12.63189, 0.0 ], [ -38.291, -12.63217, 0.0 ] ] ], [ [ [ -38.24941, -12.6368, 0.0 ], [ -38.24879, -12.63692, 0.0 ], [ -38.24831, -12.63708, 0.0 ], [ -38.24831, -12.63708, 0.0 ], [ -38.24878, -12.63692, 0.0 ], [ -38.2494, -12.6368, 0.0 ], [ -38.24976, -12.63691, 0.0 ], [ -38.24976, -12.63691, 0.0 ], [ -38.24941, -12.6368, 0.0 ] ] ], [ [ [ -38.24639, -12.63769, 0.0 ], [ -38.24638, -12.63769, 0.0 ], [ -38.24694, -12.63755, 0.0 ], [ -38.24719, -12.63749, 0.0 ], [ -38.24721, -12.63748, 0.0 ], [ -38.24735, -12.63744, 0.0 ], [ -38.24767, -12.63735, 0.0 ], [ -38.24768, -12.63735, 0.0 ], [ -38.24735, -12.63744, 0.0 ], [ -38.24719, -12.63749, 0.0 ], [ -38.24639, -12.63769, 0.0 ] ] ], [ [ [ -38.37134, -12.67127, 0.0 ], [ -38.3716, -12.67157, 0.0 ], [ -38.37161, -12.67157, 0.0 ], [ -38.36992, -12.66968, 0.0 ], [ -38.36757, -12.66704, 0.0 ], [ -38.36487, -12.66402, 0.0 ], [ -38.3628, -12.66172, 0.0 ], [ -38.36168, -12.66046, 0.0 ], [ -38.36055, -12.65922, 0.0 ], [ -38.3599, -12.65845, 0.0 ], [ -38.35942, -12.65786, 0.0 ], [ -38.35844, -12.65594, 0.0 ], [ -38.35647, -12.65189, 0.0 ], [ -38.35379, -12.64636, 0.0 ], [ -38.34992, -12.63872, 0.0 ], [ -38.34991, -12.63873, 0.0 ], [ -38.35378, -12.64636, 0.0 ], [ -38.35647, -12.65189, 0.0 ], [ -38.35843, -12.65594, 0.0 ], [ -38.35941, -12.65786, 0.0 ], [ -38.3599, -12.65845, 0.0 ], [ -38.36055, -12.65922, 0.0 ], [ -38.36167, -12.66046, 0.0 ], [ -38.36279, -12.66172, 0.0 ], [ -38.36332, -12.66231, 0.0 ], [ -38.3635, -12.66251, 0.0 ], [ -38.36486, -12.66402, 0.0 ], [ -38.36757, -12.66704, 0.0 ], [ -38.36991, -12.66968, 0.0 ], [ -38.37118, -12.6711, 0.0 ], [ -38.37119, -12.67112, 0.0 ], [ -38.37134, -12.67127, 0.0 ] ] ] ] } }
]
}
